[{"OBJECT_NAME":"STARLINK-5217","OBJECT_ID":"2022-136AZ","EPOCH":"2025-07-28T10:20:33.478656","MEAN_MOTION":15.08835585,"ECCENTRICITY":0.0001081,"INCLINATION":53.2173,"RA_OF_ASC_NODE":261.1943,"ARG_OF_PERICENTER":80.9993,"MEAN_ANOMALY":279.1121,"EPHEMERIS_TYPE":0,"CLASSIFICATION_TYPE":"U","NORAD_CAT_ID":54098,"ELEMENT_SET_NO":999,"REV_AT_EPOCH":15312,"BSTAR":2.387e-5,"MEAN_MOTION_DOT":9.2e-7,"MEAN_MOTION_DDOT":0},{"OBJECT_NAME":"STARLINK-5198","OBJECT_ID":"2022-136BA","EPOCH":"2025-07-28T10:08:26.814048","MEAN_MOTION":15.08835216,"ECCENTRICITY":0.0001137,"INCLINATION":53.2179,"RA_OF_ASC_NODE":260.4509,"ARG_OF_PERICENTER":80.1611,"MEAN_ANOMALY":279.9509,"EPHEMERIS_TYPE":0,"CLASSIFICATION_TYPE":"U","NORAD_CAT_ID":54099,"ELEMENT_SET_NO":999,"REV_AT_EPOCH":15313,"BSTAR":8.5963e-6,"MEAN_MOTION_DOT":-1.51e-6,"MEAN_MOTION_DDOT":0},{"OBJECT_NAME":"STARLINK-5185","OBJECT_ID":"2022-136BB","EPOCH":"2025-07-28T10:29:40.080480","MEAN_MOTION":15.08836005,"ECCENTRICITY":0.0001113,"INCLINATION":53.217,"RA_OF_ASC_NODE":260.5414,"ARG_OF_PERICENTER":76.322,"MEAN_ANOMALY":283.7896,"EPHEMERIS_TYPE":0,"CLASSIFICATION_TYPE":"U","NORAD_CAT_ID":54100,"ELEMENT_SET_NO":999,"REV_AT_EPOCH":15313,"BSTAR":4.7126e-6,"MEAN_MOTION_DOT":-2.13e-6,"MEAN_MOTION_DDOT":0},{"OBJECT_NAME":"STARLINK-5204","OBJECT_ID":"2022-136BC","EPOCH":"2025-07-28T08:54:59.429088","MEAN_MOTION":15.08851167,"ECCENTRICITY":7.08e-5,"INCLINATION":53.2153,"RA_OF_ASC_NODE":245.8872,"ARG_OF_PERICENTER":87.7535,"MEAN_ANOMALY":272.3538,"EPHEMERIS_TYPE":0,"CLASSIFICATION_TYPE":"U","NORAD_CAT_ID":54101,"ELEMENT_SET_NO":999,"REV_AT_EPOCH":15333,"BSTAR":-0.00010204,"MEAN_MOTION_DOT":-1.912e-5,"MEAN_MOTION_DDOT":0},{"OBJECT_NAME":"STARLINK-5179","OBJECT_ID":"2022-136BD","EPOCH":"2025-07-28T11:12:07.180992","MEAN_MOTION":15.08835741,"ECCENTRICITY":9.62e-5,"INCLINATION":53.2166,"RA_OF_ASC_NODE":260.7157,"ARG_OF_PERICENTER":82.5122,"MEAN_ANOMALY":277.5979,"EPHEMERIS_TYPE":0,"CLASSIFICATION_TYPE":"U","NORAD_CAT_ID":54102,"ELEMENT_SET_NO":999,"REV_AT_EPOCH":15313,"BSTAR":2.2654e-5,"MEAN_MOTION_DOT":7.3e-7,"MEAN_MOTION_DDOT":0},{"OBJECT_NAME":"STARLINK-5200","OBJECT_ID":"2022-136BE","EPOCH":"2025-07-28T08:56:56.819904","MEAN_MOTION":15.08834106,"ECCENTRICITY":9.71e-5,"INCLINATION":53.2163,"RA_OF_ASC_NODE":240.9043,"ARG_OF_PERICENTER":77.1204,"MEAN_ANOMALY":282.9897,"EPHEMERIS_TYPE":0,"CLASSIFICATION_TYPE":"U","NORAD_CAT_ID":54103,"ELEMENT_SET_NO":999,"REV_AT_EPOCH":15340,"BSTAR":4.4864e-6,"MEAN_MOTION_DOT":-2.16e-6,"MEAN_MOTION_DDOT":0},{"OBJECT_NAME":"STARLINK-5203","OBJECT_ID":"2022-136BF","EPOCH":"2025-07-28T14:45:59.749632","MEAN_MOTION":15.08831935,"ECCENTRICITY":0.0001177,"INCLINATION":53.2159,"RA_OF_ASC_NODE":224.585,"ARG_OF_PERICENTER":80.0546,"MEAN_ANOMALY":280.0579,"EPHEMERIS_TYPE":0,"CLASSIFICATION_TYPE":"U","NORAD_CAT_ID":54104,"ELEMENT_SET_NO":999,"REV_AT_EPOCH":15365,"BSTAR":-3.225e-5,"MEAN_MOTION_DOT":-8.01e-6,"MEAN_MOTION_DDOT":0},{"OBJECT_NAME":"STARLINK-5290","OBJECT_ID":"2022-141A","EPOCH":"2025-07-28T13:41:51.806400","MEAN_MOTION":15.0883697,"ECCENTRICITY":0.0001173,"INCLINATION":53.2183,"RA_OF_ASC_NODE":300.1798,"ARG_OF_PERICENTER":84.46,"MEAN_ANOMALY":275.6526,"EPHEMERIS_TYPE":0,"CLASSIFICATION_TYPE":"U","NORAD_CAT_ID":54157,"ELEMENT_SET_NO":999,"REV_AT_EPOCH":15188,"BSTAR":3.4704e-6,"MEAN_MOTION_DOT":-2.33e-6,"MEAN_MOTION_DDOT":0},{"OBJECT_NAME":"STARLINK-5297","OBJECT_ID":"2022-141B","EPOCH":"2025-07-28T12:31:37.671456","MEAN_MOTION":15.08837468,"ECCENTRICITY":0.0001035,"INCLINATION":53.2169,"RA_OF_ASC_NODE":300.5839,"ARG_OF_PERICENTER":85.7828,"MEAN_ANOMALY":274.3283,"EPHEMERIS_TYPE":0,"CLASSIFICATION_TYPE":"U","NORAD_CAT_ID":54158,"ELEMENT_SET_NO":999,"REV_AT_EPOCH":15187,"BSTAR":-2.201e-5,"MEAN_MOTION_DOT":-6.38e-6,"MEAN_MOTION_DDOT":0},{"OBJECT_NAME":"STARLINK-5294","OBJECT_ID":"2022-141C","EPOCH":"2025-07-28T12:26:19.087872","MEAN_MOTION":15.0884317,"ECCENTRICITY":0.0001132,"INCLINATION":53.2177,"RA_OF_ASC_NODE":300.568,"ARG_OF_PERICENTER":89.3612,"MEAN_ANOMALY":270.751,"EPHEMERIS_TYPE":0,"CLASSIFICATION_TYPE":"U","NORAD_CAT_ID":54159,"ELEMENT_SET_NO":999,"REV_AT_EPOCH":15187,"BSTAR":-3.3558e-5,"MEAN_MOTION_DOT":-8.22e-6,"MEAN_MOTION_DDOT":0},{"OBJECT_NAME":"STARLINK-5233","OBJECT_ID":"2022-141D","EPOCH":"2025-07-28T15:08:35.284416","MEAN_MOTION":15.08835382,"ECCENTRICITY":0.0001047,"INCLINATION":53.217,"RA_OF_ASC_NODE":254.9299,"ARG_OF_PERICENTER":83.5655,"MEAN_ANOMALY":276.5456,"EPHEMERIS_TYPE":0,"CLASSIFICATION_TYPE":"U","NORAD_CAT_ID":54160,"ELEMENT_SET_NO":999,"REV_AT_EPOCH":15252,"BSTAR":5.1673e-6,"MEAN_MOTION_DOT":-2.06e-6,"MEAN_MOTION_DDOT":0},{"OBJECT_NAME":"STARLINK-5269","OBJECT_ID":"2022-141E","EPOCH":"2025-07-28T12:27:42.286752","MEAN_MOTION":15.08835562,"ECCENTRICITY":0.0001051,"INCLINATION":53.2184,"RA_OF_ASC_NODE":300.5671,"ARG_OF_PERICENTER":85.9008,"MEAN_ANOMALY":274.2104,"EPHEMERIS_TYPE":0,"CLASSIFICATION_TYPE":"U","NORAD_CAT_ID":54161,"ELEMENT_SET_NO":999,"REV_AT_EPOCH":15187,"BSTAR":-4.0488e-5,"MEAN_MOTION_DOT":-9.32e-6,"MEAN_MOTION_DDOT":0},{"OBJECT_NAME":"STARLINK-5273","OBJECT_ID":"2022-141F","EPOCH":"2025-07-28T13:51:05.887872","MEAN_MOTION":15.08835891,"ECCENTRICITY":0.0001188,"INCLINATION":53.2185,"RA_OF_ASC_NODE":300.2188,"ARG_OF_PERICENTER":77.8457,"MEAN_ANOMALY":282.2668,"EPHEMERIS_TYPE":0,"CLASSIFICATION_TYPE":"U","NORAD_CAT_ID":54162,"ELEMENT_SET_NO":999,"REV_AT_EPOCH":15188,"BSTAR":3.5437e-5,"MEAN_MOTION_DOT":2.76e-6,"MEAN_MOTION_DDOT":0},{"OBJECT_NAME":"STARLINK-5161","OBJECT_ID":"2022-141G","EPOCH":"2025-07-28T12:32:57.689088","MEAN_MOTION":15.0883361,"ECCENTRICITY":0.0001208,"INCLINATION":53.218,"RA_OF_ASC_NODE":290.6175,"ARG_OF_PERICENTER":94.1321,"MEAN_ANOMALY":265.9809,"EPHEMERIS_TYPE":0,"CLASSIFICATION_TYPE":"U","NORAD_CAT_ID":54163,"ELEMENT_SET_NO":999,"REV_AT_EPOCH":15201,"BSTAR":-2.5124e-5,"MEAN_MOTION_DOT":-6.88e-6,"MEAN_MOTION_DDOT":0},{"OBJECT_NAME":"STARLINK-5278","OBJECT_ID":"2022-141H","EPOCH":"2025-07-28T12:38:16.113696","MEAN_MOTION":15.08830732,"ECCENTRICITY":0.0001161,"INCLINATION":53.2181,"RA_OF_ASC_NODE":290.6403,"ARG_OF_PERICENTER":79.2552,"MEAN_ANOMALY":280.857,"EPHEMERIS_TYPE":0,"CLASSIFICATION_TYPE":"U","NORAD_CAT_ID":54164,"ELEMENT_SET_NO":999,"REV_AT_EPOCH":15201,"BSTAR":-5.329e-5,"MEAN_MOTION_DOT":-1.136e-5,"MEAN_MOTION_DDOT":0},{"OBJECT_NAME":"STARLINK-5279","OBJECT_ID":"2022-141J","EPOCH":"2025-07-28T13:45:47.261088","MEAN_MOTION":15.08838522,"ECCENTRICITY":0.0001024,"INCLINATION":53.217,"RA_OF_ASC_NODE":300.1948,"ARG_OF_PERICENTER":87.9386,"MEAN_ANOMALY":272.1724,"EPHEMERIS_TYPE":0,"CLASSIFICATION_TYPE":"U","NORAD_CAT_ID":54165,"ELEMENT_SET_NO":999,"REV_AT_EPOCH":15188,"BSTAR":1.0375e-5,"MEAN_MOTION_DOT":-1.23e-6,"MEAN_MOTION_DDOT":0},{"OBJECT_NAME":"STARLINK-5280","OBJECT_ID":"2022-141K","EPOCH":"2025-07-28T12:27:39.366432","MEAN_MOTION":15.08832723,"ECCENTRICITY":9.99e-5,"INCLINATION":53.2181,"RA_OF_ASC_NODE":290.593,"ARG_OF_PERICENTER":87.2333,"MEAN_ANOMALY":272.8774,"EPHEMERIS_TYPE":0,"CLASSIFICATION_TYPE":"U","NORAD_CAT_ID":54166,"ELEMENT_SET_NO":999,"REV_AT_EPOCH":15201,"BSTAR":-2.2617e-5,"MEAN_MOTION_DOT":-6.48e-6,"MEAN_MOTION_DDOT":0}]
