STARLINK-5217           
1 54098U 22136AZ  25209.43094304  .00000092  00000+0  23870-4 0  9999
2 54098  53.2173 261.1943 0001081  80.9993 279.1121 15.08835585153126
STARLINK-5198           
1 54099U 22136BA  25209.42253257 -.00000151  00000+0  85963-5 0  9992
2 54099  53.2179 260.4509 0001137  80.1611 279.9509 15.08835216153134
STARLINK-5185           
1 54100U 22136BB  25209.43726945 -.00000213  00000+0  47126-5 0  9993
2 54100  53.2170 260.5414 0001113  76.3220 283.7896 15.08836005153130
STARLINK-5204           
1 54101U 22136BC  25209.37152117 -.00001912  00000+0 -10204-3 0  9994
2 54101  53.2153 245.8872 0000708  87.7535 272.3538 15.08851167153335
STARLINK-5179           
1 54102U 22136BD  25209.46674978  .00000073  00000+0  22654-4 0  9997
2 54102  53.2166 260.7157 0000962  82.5122 277.5979 15.08835741153133
STARLINK-5200           
1 54103U 22136BE  25209.37287986 -.00000216  00000+0  44864-5 0  9995
2 54103  53.2163 240.9043 0000971  77.1204 282.9897 15.08834106153409
STARLINK-5203           
1 54104U 22136BF  25209.61527488 -.00000801  00000+0 -32250-4 0  9993
2 54104  53.2159 224.5850 0001177  80.0546 280.0579 15.08831935153650
STARLINK-5290           
1 54157U 22141A   25209.57073850 -.00000233  00000+0  34704-5 0  9996
2 54157  53.2183 300.1798 0001173  84.4600 275.6526 15.08836970151881
STARLINK-5297           
1 54158U 22141B   25209.52196379 -.00000638  00000+0 -22010-4 0  9990
2 54158  53.2169 300.5839 0001035  85.7828 274.3283 15.08837468151877
STARLINK-5294           
1 54159U 22141C   25209.51827648 -.00000822  00000+0 -33558-4 0  9994
2 54159  53.2177 300.5680 0001132  89.3612 270.7510 15.08843170151870
STARLINK-5233           
1 54160U 22141D   25209.63096394 -.00000206  00000+0  51673-5 0  9999
2 54160  53.2170 254.9299 0001047  83.5655 276.5456 15.08835382152523
STARLINK-5269           
1 54161U 22141E   25209.51923943 -.00000932  00000+0 -40488-4 0  9994
2 54161  53.2184 300.5671 0001051  85.9008 274.2104 15.08835562151876
STARLINK-5273           
1 54162U 22141F   25209.57715148  .00000276  00000+0  35437-4 0  9994
2 54162  53.2185 300.2188 0001188  77.8457 282.2668 15.08835891151887
STARLINK-5161           
1 54163U 22141G   25209.52288992 -.00000688  00000+0 -25124-4 0  9993
2 54163  53.2180 290.6175 0001208  94.1321 265.9809 15.08833610152014
STARLINK-5278           
1 54164U 22141H   25209.52657539 -.00001136  00000+0 -53290-4 0  9995
2 54164  53.2181 290.6403 0001161  79.2552 280.8570 15.08830732152011
STARLINK-5279           
1 54165U 22141J   25209.57346367 -.00000123  00000+0  10375-4 0  9996
2 54165  53.2170 300.1948 0001024  87.9386 272.1724 15.08838522151884
STARLINK-5280           
1 54166U 22141K   25209.51920563 -.00000648  00000+0 -22617-4 0  9992
2 54166  53.2181 290.5930 0000999  87.2333 272.8774 15.08832723152010
